{"type": "FeatureCollection", "features": [
{"type": "Feature", "id": "n101", "properties": {"man_made": "mast", "tower:type": "communication"}, "geometry": {"type": "Point", "coordinates": [24.7536, 59.4372]}},
{"type": "Feature", "id": "n102", "properties": {"man_made": "communications_tower"}, "geometry": {"type": "Point", "coordinates": [24.76, 59.44]}},
{"type": "Feature", "id": "n103", "properties": {"man_made": "tower", "tourism": "viewpoint"}, "geometry": {"type": "Point", "coordinates": [24.77, 59.435]}},
{"type": "Feature", "id": "n104", "properties": {"man_made": "mast", "communication:television": "yes"}, "geometry": {"type": "Point", "coordinates": [24.755, 59.438]}},
{"type": "Feature", "id": "n105", "properties": {"man_made": "antenna"}, "geometry": {"type": "Point", "coordinates": [24.78, 59.44]}},
{"type": "Feature", "id": "n106", "properties": {"man_made": "water_well"}, "geometry": {"type": "Point", "coordinates": [24.7536, 59.4372]}},
{"type": "Feature", "id": "n107", "properties": {"natural": "spring"}, "geometry": {"type": "Point", "coordinates": [24.761, 59.441]}},
{"type": "Feature", "id": "n108", "properties": {"amenity": "drinking_water"}, "geometry": {"type": "Point", "coordinates": [24.762, 59.442]}},
{"type": "Feature", "id": "n109", "properties": {"amenity": "waste_disposal"}, "geometry": {"type": "Point", "coordinates": [24.763, 59.443]}},
{"type": "Feature", "id": "n110", "properties": {"amenity": "waste_basket"}, "geometry": {"type": "Point", "coordinates": [24.764, 59.444]}},
{"type": "Feature", "id": "w201", "properties": {"amenity": "recycling"}, "geometry": {"type": "Polygon", "coordinates": [[[24.75, 59.43], [24.751, 59.43], [24.751, 59.431], [24.75, 59.431], [24.75, 59.43]]]}},
{"type": "Feature", "id": "w202", "properties": {"highway": "residential"}, "geometry": {"type": "LineString", "coordinates": [[24.74, 59.43], [24.75, 59.43]]}}
]}
