{"features": [{"geometry": {"coordinates": [24.75, 59.435], "type": "Point"}, "properties": {"amenity": "school"}, "type": "Feature"}, {"geometry": {"coordinates": [24.751, 59.436], "type": "Point"}, "properties": {"amenity": "school"}, "type": "Feature"}, {"geometry": {"coordinates": [[[24.755, 59.44], [24.757, 59.44], [24.757, 59.442], [24.755, 59.442], [24.755, 59.44]]], "type": "Polygon"}, "properties": {"leisure": "stadium"}, "type": "Feature"}, {"geometry": {"coordinates": [24.752, 59.437], "type": "Point"}, "properties": {"amenity": "events_venue"}, "type": "Feature"}, {"geometry": {"coordinates": [[[24.758, 59.434], [24.76, 59.434], [24.76, 59.435], [24.758, 59.435], [24.758, 59.434]]], "type": "Polygon"}, "properties": {"tourism": "attraction"}, "type": "Feature"}, {"geometry": {"coordinates": [[[24.745, 59.43], [24.747, 59.43], [24.747, 59.431], [24.745, 59.431], [24.745, 59.43]]], "type": "Polygon"}, "properties": {"natural": "water"}, "type": "Feature"}, {"geometry": {"coordinates": [24.749, 59.433], "type": "Point"}, "properties": {"amenity": "theatre"}, "type": "Feature"}, {"geometry": {"coordinates": [24.753, 59.438], "type": "Point"}, "properties": {"leisure": "pitch"}, "type": "Feature"}, {"geometry": {"coordinates": [24.754, 59.439], "type": "Point"}, "properties": {"amenity": "fountain", "natural": "water"}, "type": "Feature"}], "type": "FeatureCollection"}